{
  "norad_id": 57438,
  "name": "STARLINK-30158",
  "history": [
    {
      "epoch": "2026-03-28T14:30:44.547264",
      "apogee_km": 483.99670859212347,
      "perigee_km": 482.09341668794787,
      "latitude_deg": 39.93872336318045,
      "longitude_deg": -18.150503039825708,
      "semi_major_axis_km": 6861.182062640036,
      "eccentricity": 0.0001387,
      "inclination_deg": 43.0022,
      "raan_deg": 153.1074,
      "arg_perigee_deg": 273.0501,
      "mean_anomaly_deg": 87.0192,
      "mean_motion_rev_day": 15.27581347
    }
  ]
}